{
  "type": "FeatureCollection",
  "features": [
    {
      "type": "Feature",
      "properties": {
        "norad_id": 25590,
        "name": "COSMOS 2361",
        "group": "musson",
        "lat": -54.48661808730462,
        "lon": 172.0645259045417,
        "alt_km": 974.6021582465919,
        "timestamp": "2025-12-15T11:38:37.423186+00:00",
        "meta_object_name": "COSMOS 2361",
        "meta_object_id": "1998-076A",
        "meta_epoch": "2025-12-14T22:33:35.993088",
        "meta_mean_motion": 13.73217718,
        "meta_eccentricity": 0.00300674,
        "meta_inclination": 82.934,
        "meta_ra_of_asc_node": 342.4589,
        "meta_arg_of_pericenter": 259.2217,
        "meta_mean_anomaly": 162.4401,
        "meta_ephemeris_type": 0,
        "meta_classification_type": "U",
        "meta_norad_cat_id": 25590,
        "meta_element_set_no": 999,
        "meta_rev_at_epoch": 35141,
        "meta_bstar": 7.3459132e-05,
        "meta_mean_motion_dot": 8.3e-07,
        "meta_mean_motion_ddot": 0,
        "tle_line1": "1 25590U 98076A   25348.93999992  .00000083  00000+0  73459-4 0  9994",
        "tle_line2": "2 25590  82.9340 342.4589 0030067 259.2217 162.4401 13.73217718351410"
      },
      "geometry": {
        "type": "Point",
        "coordinates": [
          172.0645259045417,
          -54.48661808730462
        ]
      }
    },
    {
      "type": "Feature",
      "properties": {
        "norad_id": 26818,
        "name": "COSMOS 2378",
        "group": "musson",
        "lat": -42.44075801764542,
        "lon": -8.82932798338964,
        "alt_km": 1003.2732652004825,
        "timestamp": "2025-12-15T11:38:37.423207+00:00",
        "meta_object_name": "COSMOS 2378",
        "meta_object_id": "2001-023A",
        "meta_epoch": "2025-12-14T19:13:04.421568",
        "meta_mean_motion": 13.74142119,
        "meta_eccentricity": 0.00325282,
        "meta_inclination": 82.9272,
        "meta_ra_of_asc_node": 358.1966,
        "meta_arg_of_pericenter": 199.0718,
        "meta_mean_anomaly": 334.0428,
        "meta_ephemeris_type": 0,
        "meta_classification_type": "U",
        "meta_norad_cat_id": 26818,
        "meta_element_set_no": 999,
        "meta_rev_at_epoch": 22951,
        "meta_bstar": 5.2584304e-05,
        "meta_mean_motion_dot": 6.5e-07,
        "meta_mean_motion_ddot": 0,
        "tle_line1": "1 26818U 01023A   25348.80074562  .00000065  00000+0  52584-4 0  9993",
        "tle_line2": "2 26818  82.9272 358.1966 0032528 199.0718 334.0428 13.74142119229516"
      },
      "geometry": {
        "type": "Point",
        "coordinates": [
          -8.82932798338964,
          -42.44075801764542
        ]
      }
    },
    {
      "type": "Feature",
      "properties": {
        "norad_id": 27436,
        "name": "COSMOS 2389",
        "group": "musson",
        "lat": 5.542007148762833,
        "lon": 124.26436940749727,
        "alt_km": 1001.2078840547529,
        "timestamp": "2025-12-15T11:38:37.423220+00:00",
        "meta_object_name": "COSMOS 2389",
        "meta_object_id": "2002-026A",
        "meta_epoch": "2025-12-14T22:52:07.528224",
        "meta_mean_motion": 13.75154909,
        "meta_eccentricity": 0.00475619,
        "meta_inclination": 82.9505,
        "meta_ra_of_asc_node": 305.3462,
        "meta_arg_of_pericenter": 54.7328,
        "meta_mean_anomaly": 5.4523,
        "meta_ephemeris_type": 0,
        "meta_classification_type": "U",
        "meta_norad_cat_id": 27436,
        "meta_element_set_no": 999,
        "meta_rev_at_epoch": 18179,
        "meta_bstar": 6.1219189e-05,
        "meta_mean_motion_dot": 7.5e-07,
        "meta_mean_motion_ddot": 0,
        "tle_line1": "1 27436U 02026A   25348.95286491  .00000075  00000+0  61219-4 0  9992",
        "tle_line2": "2 27436  82.9505 305.3462 0047561  54.7328   5.4523 13.75154909181797"
      },
      "geometry": {
        "type": "Point",
        "coordinates": [
          124.26436940749727,
          5.542007148762833
        ]
      }
    },
    {
      "type": "Feature",
      "properties": {
        "norad_id": 27818,
        "name": "COSMOS 2398",
        "group": "musson",
        "lat": 78.45850314374573,
        "lon": 53.36627615993531,
        "alt_km": 959.7630907072953,
        "timestamp": "2025-12-15T11:38:37.423231+00:00",
        "meta_object_name": "COSMOS 2398",
        "meta_object_id": "2003-023A",
        "meta_epoch": "2025-12-14T21:30:06.973056",
        "meta_mean_motion": 13.72385892,
        "meta_eccentricity": 0.00326389,
        "meta_inclination": 82.9485,
        "meta_ra_of_asc_node": 271.1094,
        "meta_arg_of_pericenter": 106.0133,
        "meta_mean_anomaly": 323.5985,
        "meta_ephemeris_type": 0,
        "meta_classification_type": "U",
        "meta_norad_cat_id": 27818,
        "meta_element_set_no": 999,
        "meta_rev_at_epoch": 12846,
        "meta_bstar": 3.6947691e-05,
        "meta_mean_motion_dot": 4.9e-07,
        "meta_mean_motion_ddot": 0,
        "tle_line1": "1 27818U 03023A   25348.89591404  .00000049  00000+0  36948-4 0  9992",
        "tle_line2": "2 27818  82.9485 271.1094 0032638 106.0133 323.5985 13.72385892128468"
      },
      "geometry": {
        "type": "Point",
        "coordinates": [
          53.36627615993531,
          78.45850314374573
        ]
      }
    },
    {
      "type": "Feature",
      "properties": {
        "norad_id": 28380,
        "name": "COSMOS 2407",
        "group": "musson",
        "lat": -26.659969823511062,
        "lon": -152.6966688259391,
        "alt_km": 974.4326734757005,
        "timestamp": "2025-12-15T11:38:37.423242+00:00",
        "meta_object_name": "COSMOS 2407",
        "meta_object_id": "2004-028A",
        "meta_epoch": "2025-12-14T21:52:02.046720",
        "meta_mean_motion": 13.76313914,
        "meta_eccentricity": 0.004026,
        "meta_inclination": 82.9604,
        "meta_ra_of_asc_node": 211.2851,
        "meta_arg_of_pericenter": 48.953,
        "meta_mean_anomaly": 322.208,
        "meta_ephemeris_type": 0,
        "meta_classification_type": "U",
        "meta_norad_cat_id": 28380,
        "meta_element_set_no": 999,
        "meta_rev_at_epoch": 7453,
        "meta_bstar": 6.7806638e-05,
        "meta_mean_motion_dot": 8.2e-07,
        "meta_mean_motion_ddot": 0,
        "tle_line1": "1 28380U 04028A   25348.91113480  .00000082  00000+0  67807-4 0  9995",
        "tle_line2": "2 28380  82.9604 211.2851 0040260  48.9530 322.2080 13.76313914 74537"
      },
      "geometry": {
        "type": "Point",
        "coordinates": [
          -152.6966688259391,
          -26.659969823511062
        ]
      }
    },
    {
      "type": "Feature",
      "properties": {
        "norad_id": 28521,
        "name": "COSMOS 2414",
        "group": "musson",
        "lat": -8.83223291561284,
        "lon": -178.51807221204086,
        "alt_km": 963.1682231908435,
        "timestamp": "2025-12-15T11:38:37.423253+00:00",
        "meta_object_name": "COSMOS 2414",
        "meta_object_id": "2005-002A",
        "meta_epoch": "2025-12-14T21:50:41.981568",
        "meta_mean_motion": 13.87903234,
        "meta_eccentricity": 0.00410136,
        "meta_inclination": 82.9489,
        "meta_ra_of_asc_node": 183.0187,
        "meta_arg_of_pericenter": 133.6041,
        "meta_mean_anomaly": 226.8538,
        "meta_ephemeris_type": 0,
        "meta_classification_type": "U",
        "meta_norad_cat_id": 28521,
        "meta_element_set_no": 999,
        "meta_rev_at_epoch": 5825,
        "meta_bstar": 7.3412594e-05,
        "meta_mean_motion_dot": 1.04e-06,
        "meta_mean_motion_ddot": 0,
        "tle_line1": "1 28521U 05002A   25348.91020812  .00000104  00000+0  73413-4 0  9996",
        "tle_line2": "2 28521  82.9489 183.0187 0041013 133.6041 226.8538 13.87903234 58259"
      },
      "geometry": {
        "type": "Point",
        "coordinates": [
          -178.51807221204086,
          -8.83223291561284
        ]
      }
    },
    {
      "type": "Feature",
      "properties": {
        "norad_id": 32052,
        "name": "COSMOS 2429",
        "group": "musson",
        "lat": -0.7092403343925676,
        "lon": -18.80246694335072,
        "alt_km": 959.3884949794856,
        "timestamp": "2025-12-15T11:38:37.423264+00:00",
        "meta_object_name": "COSMOS 2429",
        "meta_object_id": "2007-038A",
        "meta_epoch": "2025-12-14T16:26:18.580992",
        "meta_mean_motion": 13.75149534,
        "meta_eccentricity": 0.00391399,
        "meta_inclination": 82.9804,
        "meta_ra_of_asc_node": 341.8746,
        "meta_arg_of_pericenter": 32.5527,
        "meta_mean_anomaly": 327.8031,
        "meta_ephemeris_type": 0,
        "meta_classification_type": "U",
        "meta_norad_cat_id": 32052,
        "meta_element_set_no": 999,
        "meta_rev_at_epoch": 91629,
        "meta_bstar": 6.9252386e-05,
        "meta_mean_motion_dot": 8.2e-07,
        "meta_mean_motion_ddot": 0,
        "tle_line1": "1 32052U 07038A   25348.68493728  .00000082  00000+0  69252-4 0  9996",
        "tle_line2": "2 32052  82.9804 341.8746 0039139  32.5527 327.8031 13.75149534916290"
      },
      "geometry": {
        "type": "Point",
        "coordinates": [
          -18.80246694335072,
          -0.7092403343925676
        ]
      }
    },
    {
      "type": "Feature",
      "properties": {
        "norad_id": 35635,
        "name": "COSMOS 2454",
        "group": "musson",
        "lat": 60.848415631945464,
        "lon": 179.3718837571871,
        "alt_km": 908.1107042324702,
        "timestamp": "2025-12-15T11:38:37.423274+00:00",
        "meta_object_name": "COSMOS 2454",
        "meta_object_id": "2009-039A",
        "meta_epoch": "2025-12-14T22:02:52.324224",
        "meta_mean_motion": 13.89928845,
        "meta_eccentricity": 0.00204009,
        "meta_inclination": 82.9554,
        "meta_ra_of_asc_node": 166.9932,
        "meta_arg_of_pericenter": 67.9033,
        "meta_mean_anomaly": 40.8357,
        "meta_ephemeris_type": 0,
        "meta_classification_type": "U",
        "meta_norad_cat_id": 35635,
        "meta_element_set_no": 999,
        "meta_rev_at_epoch": 83180,
        "meta_bstar": 6.061045e-05,
        "meta_mean_motion_dot": 9.1e-07,
        "meta_mean_motion_ddot": 0,
        "tle_line1": "1 35635U 09039A   25348.91866116  .00000091  00000+0  60610-4 0  9999",
        "tle_line2": "2 35635  82.9554 166.9932 0020400  67.9033  40.8357 13.89928845831801"
      },
      "geometry": {
        "type": "Point",
        "coordinates": [
          179.3718837571871,
          60.848415631945464
        ]
      }
    },
    {
      "type": "Feature",
      "properties": {
        "norad_id": 36519,
        "name": "COSMOS 2463",
        "group": "musson",
        "lat": -76.53565529200307,
        "lon": -6.370511205365832,
        "alt_km": 975.3862902630244,
        "timestamp": "2025-12-15T11:38:37.423285+00:00",
        "meta_object_name": "COSMOS 2463",
        "meta_object_id": "2010-017A",
        "meta_epoch": "2025-12-14T15:35:17.424672",
        "meta_mean_motion": 13.71649265,
        "meta_eccentricity": 0.00347608,
        "meta_inclination": 82.9612,
        "meta_ra_of_asc_node": 25.3093,
        "meta_arg_of_pericenter": 282.5486,
        "meta_mean_anomaly": 194.9131,
        "meta_ephemeris_type": 0,
        "meta_classification_type": "U",
        "meta_norad_cat_id": 36519,
        "meta_element_set_no": 999,
        "meta_rev_at_epoch": 78263,
        "meta_bstar": 4.5971433e-05,
        "meta_mean_motion_dot": 5.6e-07,
        "meta_mean_motion_ddot": 0,
        "tle_line1": "1 36519U 10017A   25348.64950723  .00000056  00000+0  45971-4 0  9991",
        "tle_line2": "2 36519  82.9612  25.3093 0034760 282.5486 194.9131 13.71649265782639"
      },
      "geometry": {
        "type": "Point",
        "coordinates": [
          -6.370511205365832,
          -76.53565529200307
        ]
      }
    }
  ]
}